$$SOE
2460154.500000000, A.D. 2023-Jul-29 00:00:00.0000, -3.323677645496324E+08, 6.139855053625330E+07, 9.715815157595173E+06,
2460161.500000000, A.D. 2023-Aug-05 00:00:00.0000, -3.366782578031004E+08, 4.932834104791970E+07, 9.732781313139280E+06,
2460168.500000000, A.D. 2023-Aug-12 00:00:00.0000, -3.405745238998934E+08, 3.719736705092260E+07, 9.737772470748872E+06,
2460175.500000000, A.D. 2023-Aug-19 00:00:00.0000, -3.440602425041639E+08, 2.502147965961975E+07, 9.731024859141966E+06,
2460182.500000000, A.D. 2023-Aug-26 00:00:00.0000, -3.471396894071946E+08, 1.281597319952581E+07, 9.712786467682028E+06,
2460189.500000000, A.D. 2023-Sep-02 00:00:00.0000, -3.498176818494913E+08, 5.955722861545021E+05, 9.683315412022056E+06,
2460196.500000000, A.D. 2023-Sep-09 00:00:00.0000, -3.520995256709751E+08, -1.162557662627208E+07, 9.642878403194696E+06,
2460203.500000000, A.D. 2023-Sep-16 00:00:00.0000, -3.539909643971715E+08, -2.383390971522097E+07, 9.591749270445803E+06,
2460210.500000000, A.D. 2023-Sep-23 00:00:00.0000, -3.554981300595474E+08, -3.601644644160905E+07, 9.530207529353172E+06,
2460217.500000000, A.D. 2023-Sep-30 00:00:00.0000, -3.566274962420174E+08, -4.816078561322676E+07, 9.458537129104935E+06,
2460224.500000000, A.D. 2023-Oct-07 00:00:00.0000, -3.573858358096254E+08, -6.025509780752828E+07, 9.377025550093908E+06,
2460231.500000000, A.D. 2023-Oct-14 00:00:00.0000, -3.577801823409683E+08, -7.228811785216299E+07, 9.285962883869451E+06,
2460238.500000000, A.D. 2023-Oct-21 00:00:00.0000, -3.578177920580764E+08, -8.424913611900511E+07, 9.185640728072241E+06,
2460245.500000000, A.D. 2023-Oct-28 00:00:00.0000, -3.575061076610379E+08, -9.612798670353274E+07, 9.076351209011614E+06,
2460252.500000000, A.D. 2023-Nov-04 00:00:00.0000, -3.568527252718796E+08, -1.079150335692956E+08, 8.958386179958418E+06,
2460259.500000000, A.D. 2023-Nov-11 00:00:00.0000, -3.558653642468900E+08, -1.196011555415787E+08, 8.832036525628529E+06,
2460266.500000000, A.D. 2023-Nov-18 00:00:00.0000, -3.545518395584738E+08, -1.311777304701653E+08, 8.697591543219641E+06,
2460273.500000000, A.D. 2023-Nov-25 00:00:00.0000, -3.529200365787304E+08, -1.426366187669685E+08, 8.555338390893921E+06,
2460280.500000000, A.D. 2023-Dec-02 00:00:00.0000, -3.509778881299344E+08, -1.539701465334305E+08, 8.405561595780760E+06,
2460287.500000000, A.D. 2023-Dec-09 00:00:00.0000, -3.487333536101158E+08, -1.651710885171841E+08, 8.248542604995146E+06,
2460294.500000000, A.D. 2023-Dec-16 00:00:00.0000, -3.461943997879611E+08, -1.762326510439615E+08, 8.084559349744558E+06,
2460301.500000000, A.D. 2023-Dec-23 00:00:00.0000, -3.433689827981609E+08, -1.871484543749462E+08, 7.913885842204891E+06,
2460308.500000000, A.D. 2023-Dec-30 00:00:00.0000, -3.402650325561233E+08, -1.979125135585012E+08, 7.736792009354919E+06,
2460315.500000000, A.D. 2024-Jan-06 00:00:00.0000, -3.368904412446426E+08, -2.085192202381721E+08, 7.553543728962541E+06,
2460322.500000000, A.D. 2024-Jan-13 00:00:00.0000, -3.332530525841752E+08, -2.189633273090066E+08, 7.364402624853030E+06,
2460329.500000000, A.D. 2024-Jan-20 00:00:00.0000, -3.293606505495365E+08, -2.292399334054234E+08, 7.169625757596239E+06,
2460336.500000000, A.D. 2024-Jan-27 00:00:00.0000, -3.252209494473230E+08, -2.393444666220853E+08, 6.969465446447179E+06,
2460343.500000000, A.D. 2024-Feb-03 00:00:00.0000, -3.208415856705478E+08, -2.492726684622121E+08, 6.764169180609405E+06,
2460350.500000000, A.D. 2024-Feb-10 00:00:00.0000, -3.162301107494426E+08, -2.590205783450513E+08, 6.553979566886887E+06,
2460357.500000000, A.D. 2024-Feb-17 00:00:00.0000, -3.113939854665179E+08, -2.685845186977620E+08, 6.339134298331514E+06,
2460364.500000000, A.D. 2024-Feb-24 00:00:00.0000, -3.063405749147975E+08, -2.779610806401011E+08, 6.119866139006540E+06,
2460371.500000000, A.D. 2024-Mar-02 00:00:00.0000, -3.010771443894321E+08, -2.871471103080900E+08, 5.896402917117268E+06,
2460378.500000000, A.D. 2024-Mar-09 00:00:00.0000, -2.956108558968799E+08, -2.961396958860221E+08, 5.668967506470203E+06,
2460385.500000000, A.D. 2024-Mar-16 00:00:00.0000, -2.899487648131623E+08, -3.049361551509886E+08, 5.437777774128571E+06,
2460392.500000000, A.D. 2024-Mar-23 00:00:00.0000, -2.840978167259155E+08, -3.135340224182680E+08, 5.203046592551500E+06,
2460399.500000000, A.D. 2024-Mar-30 00:00:00.0000, -2.780648466367919E+08, -3.219310349085491E+08, 4.964982117834017E+06,
2460406.500000000, A.D. 2024-Apr-06 00:00:00.0000, -2.718565802087335E+08, -3.301251218974400E+08, 4.723788033656076E+06,
2460413.500000000, A.D. 2024-Apr-13 00:00:00.0000, -2.654796334541583E+08, -3.381143958025618E+08, 4.479663502142191E+06,
2460420.500000000, A.D. 2024-Apr-20 00:00:00.0000, -2.589405117684060E+08, -3.458971425199136E+08, 4.232803126593739E+06,
2460427.500000000, A.D. 2024-Apr-27 00:00:00.0000, -2.522456097807193E+08, -3.534718115560662E+08, 3.983397018364921E+06,
2460434.500000000, A.D. 2024-May-04 00:00:00.0000, -2.454012118930362E+08, -3.608370066432558E+08, 3.731630901346758E+06,
2460441.500000000, A.D. 2024-May-11 00:00:00.0000, -2.384134932296885E+08, -3.679914769225276E+08, 3.477686222932562E+06,
2460448.500000000, A.D. 2024-May-18 00:00:00.0000, -2.312885208810720E+08, -3.749341086567120E+08, 3.221740264927819E+06,
2460455.500000000, A.D. 2024-May-25 00:00:00.0000, -2.240322553850853E+08, -3.816639174635287E+08, 2.963966251003623E+06,
2460462.500000000, A.D. 2024-Jun-01 00:00:00.0000, -2.166505523578516E+08, -3.881800411092181E+08, 2.704533440146387E+06,
2460469.500000000, A.D. 2024-Jun-08 00:00:00.0000, -2.091491640013263E+08, -3.944817328688679E+08, 2.443607181380957E+06,
2460476.500000000, A.D. 2024-Jun-15 00:00:00.0000, -2.015337400649449E+08, -4.005683548920223E+08, 2.181348937498093E+06,
2460483.500000000, A.D. 2024-Jun-22 00:00:00.0000, -1.938098292457605E+08, -4.064393703820902E+08, 1.917916465900987E+06,
2460490.500000000, A.D. 2024-Jun-29 00:00:00.0000, -1.859828831297325E+08, -4.120943363939571E+08, 1.653464202195287E+06,
2460497.500000000, A.D. 2024-Jul-06 00:00:00.0000, -1.780582600122694E+08, -4.175328997058769E+08, 1.388143401752442E+06,
2460504.500000000, A.D. 2024-Jul-13 00:00:00.0000, -1.700412266346921E+08, -4.227547929275931E+08, 1.122102091123044E+06,
2460511.500000000, A.D. 2024-Jul-20 00:00:00.0000, -1.619369598099783E+08, -4.277598296812361E+08, 8.554851052426398E+05,
2460518.500000000, A.D. 2024-Jul-27 00:00:00.0000, -1.537505485822371E+08, -4.325478997991692E+08, 5.884341920389533E+05,
2460525.500000000, A.D. 2024-Aug-03 00:00:00.0000, -1.454869966361478E+08, -4.371189648987288E+08, 3.210881285022795E+05,
2460532.500000000, A.D. 2024-Aug-10 00:00:00.0000, -1.371512247805111E+08, -4.414730543241257E+08, 5.358283227935433E+04,
2460539.500000000, A.D. 2024-Aug-17 00:00:00.0000, -1.287480734495265E+08, -4.456102614208028E+08, -2.139485341746211E+05,
2460546.500000000, A.D. 2024-Aug-24 00:00:00.0000, -1.202823051862962E+08, -4.495307401526339E+08, -4.813754716235995E+05,
2460553.500000000, A.D. 2024-Aug-31 00:00:00.0000, -1.117586069866636E+08, -4.532347021122156E+08, -7.485700801866949E+05,
2460560.500000000, A.D. 2024-Sep-07 00:00:00.0000, -1.031815921327587E+08, -4.567224137869755E+08, -1.015407047034562E+06,
2460567.500000000, A.D. 2024-Sep-14 00:00:00.0000, -9.455580142687009E+07, -4.599941930743738E+08, -1.281763612290263E+06,
2460574.500000000, A.D. 2024-Sep-21 00:00:00.0000, -8.588570585098273E+07, -4.630504046221544E+08, -1.547519293512464E+06,
2460581.500000000, A.D. 2024-Sep-28 00:00:00.0000, -7.717571113573959E+07, -4.658914572094157E+08, -1.812555588039219E+06,
2460588.500000000, A.D. 2024-Oct-05 00:00:00.0000, -6.843016056517391E+07, -4.685178031562800E+08, -2.076755989859074E+06,
2460595.500000000, A.D. 2024-Oct-12 00:00:00.0000, -5.965333637426471E+07, -4.709299367729433E+08, -2.340006044505864E+06,
2460602.500000000, A.D. 2024-Oct-19 00:00:00.0000, -5.084946148688501E+07, -4.731283921106758E+08, -2.602193303592205E+06,
2460609.500000000, A.D. 2024-Oct-26 00:00:00.0000, -4.202270162369560E+07, -4.751137408092144E+08, -2.863207241575390E+06,
2460616.500000000, A.D. 2024-Nov-02 00:00:00.0000, -3.317716752090862E+07, -4.768865901828891E+08, -3.122939170501441E+06,
2460623.500000000, A.D. 2024-Nov-09 00:00:00.0000, -2.431691716246716E+07, -4.784475815188012E+08, -3.381282159860998E+06,
2460630.500000000, A.D. 2024-Nov-16 00:00:00.0000, -1.544595799917908E+07, -4.797973885806652E+08, -3.638130963837057E+06,
2460637.500000000, A.D. 2024-Nov-23 00:00:00.0000, -6.568249107403107E+06, -4.809367163622655E+08, -3.893381964204133E+06,
2460644.500000000, A.D. 2024-Nov-30 00:00:00.0000, 2.312296921291085E+06, -4.818663001275501E+08, -4.146933151294380E+06,
2460651.500000000, A.D. 2024-Dec-07 00:00:00.0000, 1.119181277898689E+07, -4.825869043113800E+08, -4.398684146922857E+06,
2460658.500000000, A.D. 2024-Dec-14 00:00:00.0000, 2.006647524001518E+07, -4.830993200516466E+08, -4.648536105872452E+06,
2460665.500000000, A.D. 2024-Dec-21 00:00:00.0000, 2.893250164058460E+07, -4.834043625878021E+08, -4.896391384498090E+06,
2460672.500000000, A.D. 2024-Dec-28 00:00:00.0000, 3.778614601239125E+07, -4.835028714877526E+08, -5.142153399740010E+06,
2460679.500000000, A.D. 2025-Jan-04 00:00:00.0000, 4.662369746798286E+07, -4.833957113233243E+08, -5.385726722387910E+06,
2460686.500000000, A.D. 2025-Jan-11 00:00:00.0000, 5.544147901646932E+07, -4.830837711316571E+08, -5.627017101596475E+06,
2460693.500000000, A.D. 2025-Jan-18 00:00:00.0000, 6.423584589215843E+07, -4.825679635782696E+08, -5.865931411306620E+06,
2460700.500000000, A.D. 2025-Jan-25 00:00:00.0000, 7.300318363908285E+07, -4.818492242932426E+08, -6.102377579364389E+06,
2460707.500000000, A.D. 2025-Feb-01 00:00:00.0000, 8.173990614035045E+07, -4.809285114076712E+08, -6.336264518879145E+06,
2460714.500000000, A.D. 2025-Feb-08 00:00:00.0000, 9.044245365021119E+07, -4.798068052678061E+08, -6.567502065318793E+06,
$$EOE